SNAP-3 JIMI             
1 40975U 15058M   26115.85642237  .00008172  00000+0  56840-3 0  9999
2 40975  64.7669  25.2708 0104783  76.9495 284.3294 15.01706908106367
PROPCUBE 1 (FLORA)      
1 40976U 15058N   26115.67642438  .00002770  00000+0  26757-3 0  9995
2 40976  64.7733  97.9403 0129293  81.4628 280.1110 14.88907559108441
SINOD-D 3               
1 40977U 15058P   26115.95531943  .00005213  00000+0  44411-3 0  9997
2 40977  64.7720  78.8685 0117751  78.9480 282.4850 14.93587318106954
HORYU-4                 
1 41340U 16012D   26115.63763249  .00126282  00000+0  87383-3 0  9999
2 41340  30.9888  97.2055 0006179 238.5245 121.4806 15.72986907562481
RAVAN                   
1 41849U 16067B   26115.63263778  .00039788  00000+0  70919-3 0  9996
2 41849  97.9958 359.3278 0006061 166.7228 193.4182 15.49983289519547
CELTEE 1                
1 41850U 16067C   26115.58792499  .00005078  00000+0  24528-3 0  9999
2 41850  98.0749 338.5690 0002381  79.5585 280.5916 15.19148747517892
OPTICUBE 04             
1 41851U 16067D   26115.58023855  .00002081  00000+0  13432-3 0  9996
2 41851  98.0758 325.1108 0014424 298.1511  61.8259 15.09432689517236
AEROCUBE 8D             
1 41852U 16067E   26115.56384942  .00007539  00000+0  31785-3 0  9996
2 41852  98.0762 341.7426 0002628 343.0096  17.1051 15.23643901518052
AEROCUBE 8C             
1 41853U 16067F   26115.59712664  .00007215  00000+0  30221-3 0  9991
2 41853  98.0632 339.0750 0004079 232.7076 127.3787 15.23879037518054
CORVUS BC2              
1 42846U 17042X   26115.90836512  .00003793  00000+0  26422-3 0  9997
2 42846  97.4022 279.3192 0011422 293.7720  66.2309 15.05959920479194
CORVUS BC1              
1 42847U 17042Y   26115.70957630  .00002630  00000+0  18371-3 0  9994
2 42847  97.4056 279.9077 0010181 267.3105  92.6957 15.06127520479191
MAKERSAT 0              
1 43016U 17073D   26115.63071853  .00022036  00000+0  62656-3 0  9990
2 43016  97.4705 357.8114 0114178  99.6465 261.7695 15.29789926458425
SIRION PATHFINDER-2     
1 43759U 18099B   26115.71492635  .00004594  00000+0  25593-3 0  9995
2 43759  97.4303 166.0261 0010460 118.0429 242.1862 15.14050355404680
CORVUS BC4              
1 43767U 18099K   26115.65118015  .00004253  00000+0  25078-3 0  9994
2 43767  97.4124 160.1730 0008653 170.9764 189.1624 15.12056768404460
M2 PATHFINDER           
1 45727U 20037E   26115.77283299  .00001481  00000+0  11046-3 0  9997
2 45727  97.8167 306.4190 0010867 338.3578  21.7187 15.04440275317613
NETSAT-4                
1 46504U 20068U   26115.72424217  .00016872  00000+0  39615-3 0  9999
2 46504  97.8635 119.8222 0007154 134.9268 225.2559 15.42089611307685
